STARLINK-33702          
1 63591U 25076Y   26068.03869102  .00045868  00000+0  16650-2 0  9995
2 63591  43.0039 325.1251 0001687 264.3983  95.6676 15.27600182 51738
KUIPER-00209            
1 67776U 26030N   26068.61786546  .00035298  00000+0  11963-2 0  9997
2 67776  51.8838 220.0775 0012191  59.1967 301.0215 15.30161950  5077
